FLOCK 4BE-6             
1 60516U 24149BA  26200.67219031  .00008139  00000+0  20344-3 0  9993
2 60516  97.3778 284.5741 0004796 160.3202 199.8231 15.40391844107271
FLOCK 4BE-14            
1 60517U 24149BB  26201.14379668  .00010245  00000+0  24259-3 0  9990
2 60517  97.3684 285.2187 0005767 161.7338 198.4117 15.41955297107406
FLOCK 4BE-1             
1 60518U 24149BC  26201.18967065  .00010842  00000+0  24277-3 0  9992
2 60518  97.3768 286.6623 0005399 161.0158 199.1292 15.43617485107468
FLOCK 4BE-28            
1 60519U 24149BD  26201.15083185  .00027630  00000+0  55610-3 0  9990
2 60519  97.3737 287.4579 0005441 161.0395 199.1059 15.46555122107536
IPERDRONE.0             
1 60520U 24149BE  26201.01973707  .00063498  00000+0  49161-3 0  9991
2 60520  97.3758 295.9767 0004062 158.4536 201.6899 15.71670880108066
TRANSPORTER-11 OBJECT BF
1 60521U 24149BF  26200.82351977  .02604812  24456-5  95810-3 0  9991
2 60521  97.3743 299.9648 0012256 260.5999  99.3907 16.24453163108294
CONNECTA IOT-2          
1 60522U 24149BG  26200.94159021  .00002328  00000+0  98388-4 0  9990
2 60522  97.3826 278.5944 0006055 194.3438 165.7628 15.24216630106887
CONNECTA IOT-4          
1 60524U 24149BJ  26201.15694635  .00007952  00000+0  18074-3 0  9992
2 60524  97.3783 285.9437 0006402 159.4402 200.7105 15.43265429107410
ORESAT0.5               
1 60525U 24149BK  26200.74645215  .00011730  00000+0  24030-3 0  9995
2 60525  97.3712 287.2720 0006520 150.6097 209.5520 15.46218179107508
DEIMOS                  
1 60526U 24149BL  26200.99167028  .00011471  00000+0  24250-3 0  9990
2 60526  97.3771 287.6437 0006504 154.9264 205.2302 15.45301252107514
CUAVA-2                 
1 60527U 24149BM  26201.03687910  .00007087  00000+0  19919-3 0  9998
2 60527  97.3714 282.6268 0007385 163.3890 196.7598 15.36801394107216
ERNST                   
1 60528U 24149BN  26201.18637868  .00007952  00000+0  20149-3 0  9990
2 60528  97.3794 285.1715 0006706 162.6901 197.4575 15.39971426107356
TORO                    
1 60530U 24149BQ  26201.13735855  .00000936  00000+0  87342-4 0  9997
2 60530  97.6769 275.1899 0001266 109.7526 250.3833 14.96524178104888
HYPSO-2                 
1 60531U 24149BR  26201.11259518  .00000775  00000+0  68881-4 0  9991
2 60531  97.6833 276.8966 0001493  97.0514 263.0879 14.98945189104985
LEMU NGE                
1 60532U 24149BS  26200.71333626  .00000554  00000+0  55749-4 0  9994
2 60532  97.6832 275.0159 0000516 110.6125 249.5151 14.95069395104812
LEMUR-2-STELLA          
1 60533U 24149BT  26201.10203979  .00006259  00000+0  36401-3 0  9997
2 60533  97.6727 283.7150 0001313 123.2741 236.8616 15.12429957105475
SATELIOT_2              
1 60534U 24149BU  26201.12584152  .00000544  00000+0  52938-4 0  9990
2 60534  97.6814 275.4812 0001235  77.4293 282.7067 14.96465013104890
NIGHTJAR                
1 60535U 24149BV  26201.03221755  .00002261  00000+0  19048-3 0  9990
2 60535  97.6848 277.2794 0002790  86.6581 273.4961 14.99191840147799
LEMUR-2-MARHISYAM       
1 60536U 24149BW  26201.02869355  .00005186  00000+0  30733-3 0  9997
2 60536  97.6872 284.1228 0002249  62.5064 297.6394 15.11830054105440
SATELIOT_4              
1 60537U 24149BX  26201.13001167  .00000723  00000+0  68178-4 0  9996
2 60537  97.6721 274.9900 0000690 295.3998  64.7152 14.96764835104908
PICO-02A021             
1 60538U 24149BY  26200.71306196  .00002543  00000+0  19098-3 0  9998
2 60538  97.6714 279.2684 0003848 262.4225  97.6564 15.03509054104624
ICEYE-X43               
1 60539U 24149BZ  26201.12199201  .00000711  00000+0  62249-4 0  9994
2 60539  97.6782 277.6445 0006358 325.2771  34.8036 14.99793887105058
HAWK-10A                
1 60540U 24149CA  26201.13227167  .00000461  00000+0  45516-4 0  9990
2 60540  97.6879 276.4775 0002625 342.7332  17.3800 14.96596211104918
UMBRA-09                
1 60541U 24149CB  26201.14678621  .00009043  00000+0  43611-3 0  9995
2 60541  97.6962 288.9384 0002152 192.2275 167.8907 15.18939221105721
QPS-SAR-8 (AMATERU-IV)  
1 60542U 24149CC  26201.12012510  .00002300  00000+0  16905-3 0  9998
2 60542  97.6641 279.9983 0003044  26.1614 333.9765 15.04415307105226
ARCTIC WEATHER SATELLITE
1 60543U 24149CD  26201.13143414  .00000448  00000+0  52293-4 0  9990
2 60543  97.6787 270.6528 0002507  39.1312 321.0086 14.89808313104209
CAPELLA-15 (ACADIA-5)   
1 60544U 24149CE  26201.04182221  .00001526  00000+0  15454-3 0  9995
2 60544  97.6763 273.1217 0003078 319.7571  40.3420 14.92383060104759
HAWK-10B                
1 60545U 24149CF  26201.19899766  .00000530  00000+0  51555-4 0  9998
2 60545  97.6797 275.8645 0004869 356.5320   3.5867 14.96595481104922
ICEYE-X39               
1 60546U 24149CG  26201.09758120  .00002357  00000+0  19374-3 0  9997
2 60546  97.6799 277.6798 0006777  32.7311 327.4331 15.00095962105051
UMBRA-10                
1 60547U 24149CH  26201.14633460  .00008331  00000+0  40215-3 0  9999
2 60547  97.6966 288.9685 0001968 158.2895 201.8422 15.18934120105734
