OBJECT_NAME,OBJECT_ID,EPOCH,MEAN_MOTION,ECCENTRICITY,INCLINATION,RA_OF_ASC_NODE,ARG_OF_PERICENTER,MEAN_ANOMALY,EPHEMERIS_TYPE,CLASSIFICATION_TYPE,NORAD_CAT_ID,ELEMENT_SET_NO,REV_AT_EPOCH,BSTAR,MEAN_MOTION_DOT,MEAN_MOTION_DDOT
FLOCK 4BE-6,2024-149BA,2026-07-19T16:07:57.242784,15.40391844,.00047961,97.3778,284.5741,160.3202,199.8231,0,U,60516,999,10727,.2034394E-3,.8139E-4,0
FLOCK 4BE-14,2024-149BB,2026-07-20T03:27:04.033152,15.41955297,.00057678,97.3684,285.2187,161.7338,198.4117,0,U,60517,999,10740,.24259245E-3,.10245E-3,0
FLOCK 4BE-1,2024-149BC,2026-07-20T04:33:07.544160,15.43617485,.00053995,97.3768,286.6623,161.0158,199.1292,0,U,60518,999,10746,.24277428E-3,.10842E-3,0
FLOCK 4BE-28,2024-149BD,2026-07-20T03:37:11.871840,15.46555122,.00054417,97.3737,287.4579,161.0395,199.1059,0,U,60519,999,10753,.55609647E-3,.2763E-3,0
IPERDRONE.0,2024-149BE,2026-07-20T00:28:25.282848,15.71670880,.0004062,97.3758,295.9767,158.4536,201.6899,0,U,60520,999,10806,.49160737E-3,.63498E-3,0
TRANSPORTER-11 OBJECT BF,2024-149BF,2026-07-19T19:45:52.108128,16.24453163,.00122564,97.3743,299.9648,260.5999,99.3907,0,U,60521,999,10829,.95810347E-3,.2604812E-1,.244565E-5
CONNECTA IOT-2,2024-149BG,2026-07-19T22:35:53.394144,15.24216630,.00060557,97.3826,278.5944,194.3438,165.7628,0,U,60522,999,10688,.98387622E-4,.2328E-4,0
CONNECTA IOT-4,2024-149BJ,2026-07-20T03:46:00.164640,15.43265429,.00064025,97.3783,285.9437,159.4402,200.7105,0,U,60524,999,10741,.18073503E-3,.7952E-4,0
ORESAT0.5,2024-149BK,2026-07-19T17:54:53.465760,15.46218179,.00065204,97.3712,287.2720,150.6097,209.5520,0,U,60525,999,10750,.24029517E-3,.1173E-3,0
DEIMOS,2024-149BL,2026-07-19T23:48:00.312192,15.45301252,.00065044,97.3771,287.6437,154.9264,205.2302,0,U,60526,999,10751,.24249838E-3,.11471E-3,0
CUAVA-2,2024-149BM,2026-07-20T00:53:06.354240,15.36801394,.00073856,97.3714,282.6268,163.3890,196.7598,0,U,60527,999,10721,.19919215E-3,.7087E-4,0
ERNST,2024-149BN,2026-07-20T04:28:23.117952,15.39971426,.00067064,97.3794,285.1715,162.6901,197.4575,0,U,60528,999,10735,.20148815E-3,.7952E-4,0
TORO,2024-149BQ,2026-07-20T03:17:47.778720,14.96524178,.00012668,97.6769,275.1899,109.7526,250.3833,0,U,60530,999,10488,.87341707E-4,.936E-5,0
HYPSO-2,2024-149BR,2026-07-20T02:42:08.223552,14.98945189,.00014935,97.6833,276.8966,97.0514,263.0879,0,U,60531,999,10498,.68880751E-4,.775E-5,0
LEMU NGE,2024-149BS,2026-07-19T17:07:12.252864,14.95069395,.00005167,97.6832,275.0159,110.6125,249.5151,0,U,60532,999,10481,.55749413E-4,.554E-5,0
LEMUR-2-STELLA,2024-149BT,2026-07-20T02:26:56.237856,15.12429957,.0001313,97.6727,283.7150,123.2741,236.8616,0,U,60533,999,10547,.36400594E-3,.6259E-4,0
SATELIOT_2,2024-149BU,2026-07-20T03:01:12.707328,14.96465013,.00012358,97.6814,275.4812,77.4293,282.7067,0,U,60534,999,10489,.52937798E-4,.544E-5,0
NIGHTJAR,2024-149BV,2026-07-20T00:46:23.596320,14.99191840,.00027905,97.6848,277.2794,86.6581,273.4961,0,U,60535,999,14779,.19048377E-3,.2261E-4,0
LEMUR-2-MARHISYAM,2024-149BW,2026-07-20T00:41:19.122720,15.11830054,.00022493,97.6872,284.1228,62.5064,297.6394,0,U,60536,999,10544,.30732993E-3,.5186E-4,0
SATELIOT_4,2024-149BX,2026-07-20T03:07:13.008288,14.96764835,.00006906,97.6721,274.9900,295.3998,64.7152,0,U,60537,999,10490,.68177942E-4,.723E-5,0
PICO-02A021,2024-149BY,2026-07-19T17:06:48.553344,15.03509054,.00038488,97.6714,279.2684,262.4225,97.6564,0,U,60538,999,10462,.19097723E-3,.2543E-4,0
ICEYE-X43,2024-149BZ,2026-07-20T02:55:40.109664,14.99793887,.00063583,97.6782,277.6445,325.2771,34.8036,0,U,60539,999,10505,.62248652E-4,.711E-5,0
HAWK-10A,2024-149CA,2026-07-20T03:10:28.272288,14.96596211,.00026254,97.6879,276.4775,342.7332,17.3800,0,U,60540,999,10491,.45515611E-4,.461E-5,0
UMBRA-09,2024-149CB,2026-07-20T03:31:22.328544,15.18939221,.0002152,97.6962,288.9384,192.2275,167.8907,0,U,60541,999,10572,.43611367E-3,.9043E-4,0
QPS-SAR-8 (AMATERU-IV),2024-149CC,2026-07-20T02:52:58.808640,15.04415307,.00030449,97.6641,279.9983,26.1614,333.9765,0,U,60542,999,10522,.16904628E-3,.23E-4,0
ARCTIC WEATHER SATELLITE,2024-149CD,2026-07-20T03:09:15.909696,14.89808313,.00025076,97.6787,270.6528,39.1312,321.0086,0,U,60543,999,10420,.52293E-4,.448E-5,0
CAPELLA-15 (ACADIA-5),2024-149CE,2026-07-20T01:00:13.438944,14.92383060,.0003078,97.6763,273.1217,319.7571,40.3420,0,U,60544,999,10475,.15453535E-3,.1526E-4,0
HAWK-10B,2024-149CF,2026-07-20T04:46:33.397824,14.96595481,.00048697,97.6797,275.8645,356.5320,3.5867,0,U,60545,999,10492,.51555489E-4,.53E-5,0
ICEYE-X39,2024-149CG,2026-07-20T02:20:31.015680,15.00095962,.00067771,97.6799,277.6798,32.7311,327.4331,0,U,60546,999,10505,.19374217E-3,.2357E-4,0
UMBRA-10,2024-149CH,2026-07-20T03:30:43.309440,15.18934120,.00019688,97.6966,288.9685,158.2895,201.8422,0,U,60547,999,10573,.40215274E-3,.8331E-4,0
